CUPID                   
1 49264U 21088E   26068.66993977  .00009454  00000+0  38662-3 0  9991
2 49264  97.3985 131.0756 0013746  59.9938 300.2662 15.24473777245013
STARLINK-30610          
1 58082U 23160H   26068.35112743 -.00002157  00000+0 -70759-4 0  9991
2 58082  43.0023  79.8267 0001438 246.9548 113.1152 15.26733570132896
